0 DELTA 1 DEB
1 28665U 68055N   13269.15151356  .00000317  00000-0  36584-3 0   912
2 28665 120.7682 343.4207 1292269 089.9009 167.5392 12.02215764384653
0 DELTA 1 DEB
1 28665U 68055N   13277.26245795  .00003832  00000-0  32728-2 0   925
2 28665 120.7523 002.0238 1288827 096.7027 202.4377 12.03981463385638
